{"type": "FeatureCollection", "features": [ {"type": "Feature", "properties": {"norad_id": 39634, "name": "SENTINEL-1A", "group": "resource", "lat": 21.47695991017734, "lon": 0.6077602708558508, "alt_km": 695.1530843472756, "timestamp": "2025-12-24T18:55:55.714172+00:00", "meta": {"OBJECT_NAME": "SENTINEL-1A", "OBJECT_ID": "2014-016A", "EPOCH": "2025-12-24T07:18:46.764288", "MEAN_MOTION": 14.59201659, "ECCENTRICITY": 0.00012604, "INCLINATION": 98.1797, "RA_OF_ASC_NODE": 3.375, "ARG_OF_PERICENTER": 84.603, "MEAN_ANOMALY": 275.5313, "EPHEMERIS_TYPE": 0, "CLASSIFICATION_TYPE": "U", "NORAD_CAT_ID": 39634, "ELEMENT_SET_NO": 999, "REV_AT_EPOCH": 62451, "BSTAR": 2.8287172e-05, "MEAN_MOTION_DOT": 8.8e-07, "MEAN_MOTION_DDOT": 0}, "tle": {"line1": "1 39634U 14016A   25358.30470792  .00000088  00000+0  28287-4 0  9998", "line2": "2 39634  98.1797   3.3750 0001260  84.6030 275.5313 14.59201659624512"}}, "geometry": {"type": "Point", "coordinates": [0.6077602708558508, 21.47695991017734]}}, {"type": "Feature", "properties": {"norad_id": 39731, "name": "KAZEOSAT 1", "group": "resource", "lat": -25.558019035076793, "lon": 74.44904870384026, "alt_km": 757.7350166891165, "timestamp": "2025-12-24T18:55:55.714182+00:00", "meta": {"OBJECT_NAME": "KAZEOSAT 1", "OBJECT_ID": "2014-024A", "EPOCH": "2025-12-24T07:23:42.232416", "MEAN_MOTION": 14.42069055, "ECCENTRICITY": 0.00012129, "INCLINATION": 98.342, "RA_OF_ASC_NODE": 69.9556, "ARG_OF_PERICENTER": 97.4767, "MEAN_ANOMALY": 262.656, "EPHEMERIS_TYPE": 0, "CLASSIFICATION_TYPE": "U", "NORAD_CAT_ID": 39731, "ELEMENT_SET_NO": 999, "REV_AT_EPOCH": 61335, "BSTAR": 0.00010622717, "MEAN_MOTION_DOT": 3.06e-06, "MEAN_MOTION_DDOT": 0}, "tle": {"line1": "1 39731U 14024A   25358.30812769  .00000306  00000+0  10623-3 0  9996", "line2": "2 39731  98.3420  69.9556 0001212  97.4767 262.6560 14.42069055613358"}}, "geometry": {"type": "Point", "coordinates": [74.44904870384026, -25.558019035076793]}}, {"type": "Feature", "properties": {"norad_id": 39766, "name": "ALOS-2", "group": "resource", "lat": 37.62421221427113, "lon": 87.30174779959607, "alt_km": 627.7580550183702, "timestamp": "2025-12-24T18:55:55.714192+00:00", "meta": {"OBJECT_NAME": "ALOS-2", "OBJECT_ID": "2014-029A", "EPOCH": "2025-12-24T05:46:30.881280", "MEAN_MOTION": 14.79473009, "ECCENTRICITY": 0.00013768, "INCLINATION": 97.9227, "RA_OF_ASC_NODE": 92.9233, "ARG_OF_PERICENTER": 98.2531, "MEAN_ANOMALY": 261.8836, "EPHEMERIS_TYPE": 0, "CLASSIFICATION_TYPE": "U", "NORAD_CAT_ID": 39766, "ELEMENT_SET_NO": 999, "REV_AT_EPOCH": 62571, "BSTAR": 0.00029772971, "MEAN_MOTION_DOT": 2.173e-05, "MEAN_MOTION_DDOT": 0}, "tle": {"line1": "1 39766U 14029A   25358.24063520  .00002173  00000+0  29773-3 0  9995", "line2": "2 39766  97.9227  92.9233 0001376  98.2531 261.8836 14.79473009625711"}}, "geometry": {"type": "Point", "coordinates": [87.30174779959607, 37.62421221427113]}}, {"type": "Feature", "properties": {"norad_id": 40010, "name": "KAZEOSAT 2", "group": "resource", "lat": -15.21428171329351, "lon": 20.413766324246062, "alt_km": 612.569612044389, "timestamp": "2025-12-24T18:55:55.714202+00:00", "meta": {"OBJECT_NAME": "KAZEOSAT 2", "OBJECT_ID": "2014-033A", "EPOCH": "2025-12-24T06:44:14.835264", "MEAN_MOTION": 14.85188172, "ECCENTRICITY": 0.00086351, "INCLINATION": 97.5495, "RA_OF_ASC_NODE": 201.9991, "ARG_OF_PERICENTER": 166.4728, "MEAN_ANOMALY": 193.6721, "EPHEMERIS_TYPE": 0, "CLASSIFICATION_TYPE": "U", "NORAD_CAT_ID": 40010, "ELEMENT_SET_NO": 999, "REV_AT_EPOCH": 62299, "BSTAR": 0.00014562973, "MEAN_MOTION_DOT": 1.198e-05, "MEAN_MOTION_DDOT": 0}, "tle": {"line1": "1 40010U 14033A   25358.28072726  .00001198  00000+0  14563-3 0  9993", "line2": "2 40010  97.5495 201.9991 0008635 166.4728 193.6721 14.85188172622995"}}, "geometry": {"type": "Point", "coordinates": [20.413766324246062, -15.21428171329351]}}, {"type": "Feature", "properties": {"norad_id": 40011, "name": "HODOYOSHI-4", "group": "resource", "lat": 23.132585264392, "lon": -176.16588882811274, "alt_km": 617.5049763440184, "timestamp": "2025-12-24T18:55:55.714212+00:00", "meta": {"OBJECT_NAME": "HODOYOSHI-4", "OBJECT_ID": "2014-033B", "EPOCH": "2025-12-24T07:31:33.981600", "MEAN_MOTION": 14.87520882, "ECCENTRICITY": 0.00240364, "INCLINATION": 97.541, "RA_OF_ASC_NODE": 186.6267, "ARG_OF_PERICENTER": 161.7621, "MEAN_ANOMALY": 198.4463, "EPHEMERIS_TYPE": 0, "CLASSIFICATION_TYPE": "U", "NORAD_CAT_ID": 40011, "ELEMENT_SET_NO": 999, "REV_AT_EPOCH": 62280, "BSTAR": 0.00015473133, "MEAN_MOTION_DOT": 1.359e-05, "MEAN_MOTION_DDOT": 0}, "tle": {"line1": "1 40011U 14033B   25358.31358775  .00001359  00000+0  15473-3 0  9999", "line2": "2 40011  97.5410 186.6267 0024036 161.7621 198.4463 14.87520882622807"}}, "geometry": {"type": "Point", "coordinates": [-176.16588882811274, 23.132585264392]}}, {"type": "Feature", "properties": {"norad_id": 40013, "name": "DEIMOS-2", "group": "resource", "lat": 58.065895226548164, "lon": -138.1874900027983, "alt_km": 582.2379708173767, "timestamp": "2025-12-24T18:55:55.714221+00:00", "meta": {"OBJECT_NAME": "DEIMOS-2", "OBJECT_ID": "2014-033D", "EPOCH": "2025-12-24T05:48:05.353632", "MEAN_MOTION": 14.93018756, "ECCENTRICITY": 0.00014046, "INCLINATION": 97.6055, "RA_OF_ASC_NODE": 233.6628, "ARG_OF_PERICENTER": 104.0371, "MEAN_ANOMALY": 256.1005, "EPHEMERIS_TYPE": 0, "CLASSIFICATION_TYPE": "U", "NORAD_CAT_ID": 40013, "ELEMENT_SET_NO": 999, "REV_AT_EPOCH": 61161, "BSTAR": 0.00012798894, "MEAN_MOTION_DOT": 1.277e-05, "MEAN_MOTION_DDOT": 0}, "tle": {"line1": "1 40013U 14033D   25358.24172863  .00001277  00000+0  12799-3 0  9992", "line2": "2 40013  97.6055 233.6628 0001404 104.0371 256.1005 14.93018756611615"}}, "geometry": {"type": "Point", "coordinates": [-138.1874900027983, 58.065895226548164]}}, {"type": "Feature", "properties": {"norad_id": 40015, "name": "HODOYOSHI-3", "group": "resource", "lat": -13.107589842679946, "lon": -17.686066065868776, "alt_km": 596.597245686301, "timestamp": "2025-12-24T18:55:55.714231+00:00", "meta": {"OBJECT_NAME": "HODOYOSHI-3", "OBJECT_ID": "2014-033F", "EPOCH": "2025-12-24T06:44:33.590112", "MEAN_MOTION": 14.84844764, "ECCENTRICITY": 0.00324679, "INCLINATION": 97.6206, "RA_OF_ASC_NODE": 163.6147, "ARG_OF_PERICENTER": 208.7127, "MEAN_ANOMALY": 151.2303, "EPHEMERIS_TYPE": 0, "CLASSIFICATION_TYPE": "U", "NORAD_CAT_ID": 40015, "ELEMENT_SET_NO": 999, "REV_AT_EPOCH": 62166, "BSTAR": 0.00019636656, "MEAN_MOTION_DOT": 1.631e-05, "MEAN_MOTION_DDOT": 0}, "tle": {"line1": "1 40015U 14033F   25358.28094433  .00001631  00000+0  19637-3 0  9996", "line2": "2 40015  97.6206 163.6147 0032467 208.7127 151.2303 14.84844764621665"}}, "geometry": {"type": "Point", "coordinates": [-17.686066065868776, -13.107589842679946]}}, {"type": "Feature", "properties": {"norad_id": 40053, "name": "SPOT 7", "group": "resource", "lat": -46.361769593625574, "lon": 69.16328855492807, "alt_km": 698.2053746195288, "timestamp": "2025-12-24T18:55:55.714241+00:00", "meta": {"OBJECT_NAME": "SPOT 7", "OBJECT_ID": "2014-034A", "EPOCH": "2025-12-24T07:38:20.369184", "MEAN_MOTION": 14.60748124, "ECCENTRICITY": 0.00015365, "INCLINATION": 98.0889, "RA_OF_ASC_NODE": 60.1264, "ARG_OF_PERICENTER": 82.7737, "MEAN_ANOMALY": 277.3639, "EPHEMERIS_TYPE": 0, "CLASSIFICATION_TYPE": "U", "NORAD_CAT_ID": 40053, "ELEMENT_SET_NO": 999, "REV_AT_EPOCH": 61160, "BSTAR": 0.00014756755, "MEAN_MOTION_DOT": 6.74e-06, "MEAN_MOTION_DDOT": 0}, "tle": {"line1": "1 40053U 14034A   25358.31829131  .00000674  00000+0  14757-3 0  9998", "line2": "2 40053  98.0889  60.1264 0001536  82.7737 277.3639 14.60748124611602"}}, "geometry": {"type": "Point", "coordinates": [69.16328855492807, -46.361769593625574]}}, {"type": "Feature", "properties": {"norad_id": 40072, "name": "SKYSAT-B", "group": "resource", "lat": -38.723152988158844, "lon": -50.09437409427884, "alt_km": 616.9184663473479, "timestamp": "2025-12-24T18:55:55.714252+00:00", "meta": {"OBJECT_NAME": "SKYSAT-B", "OBJECT_ID": "2014-037D", "EPOCH": "2025-12-23T09:12:08.448768", "MEAN_MOTION": 14.8736338, "ECCENTRICITY": 0.00067806, "INCLINATION": 98.3626, "RA_OF_ASC_NODE": 301.6522, "ARG_OF_PERICENTER": 120.3207, "MEAN_ANOMALY": 239.8679, "EPHEMERIS_TYPE": 0, "CLASSIFICATION_TYPE": "U", "NORAD_CAT_ID": 40072, "ELEMENT_SET_NO": 999, "REV_AT_EPOCH": 61982, "BSTAR": 0.00018052931, "MEAN_MOTION_DOT": 1.571e-05, "MEAN_MOTION_DDOT": 0}, "tle": {"line1": "1 40072U 14037D   25357.38343112  .00001571  00000+0  18053-3 0  9998", "line2": "2 40072  98.3626 301.6522 0006780 120.3207 239.8679 14.87363380619827"}}, "geometry": {"type": "Point", "coordinates": [-50.09437409427884, -38.723152988158844]}}, {"type": "Feature", "properties": {"norad_id": 40115, "name": "WORLDVIEW-3 (WV-3)", "group": "resource", "lat": 67.7857171621648, "lon": -89.26294795156211, "alt_km": 606.6824646735977, "timestamp": "2025-12-24T18:55:55.714261+00:00", "meta": {"OBJECT_NAME": "WORLDVIEW-3 (WV-3)", "OBJECT_ID": "2014-048A", "EPOCH": "2025-12-24T05:29:41.522784", "MEAN_MOTION": 14.84673229, "ECCENTRICITY": 0.00020021, "INCLINATION": 97.8765, "RA_OF_ASC_NODE": 70.3687, "ARG_OF_PERICENTER": 130.4609, "MEAN_ANOMALY": 229.6781, "EPHEMERIS_TYPE": 0, "CLASSIFICATION_TYPE": "U", "NORAD_CAT_ID": 40115, "ELEMENT_SET_NO": 999, "REV_AT_EPOCH": 61594, "BSTAR": 0.00012929953, "MEAN_MOTION_DOT": 1.041e-05, "MEAN_MOTION_DDOT": 0}, "tle": {"line1": "1 40115U 14048A   25358.22895281  .00001041  00000+0  12930-3 0  9991", "line2": "2 40115  97.8765  70.3687 0002002 130.4609 229.6781 14.84673229615949"}}, "geometry": {"type": "Point", "coordinates": [-89.26294795156211, 67.7857171621648]}}]}